{"fetched_at":"2026-03-29T16:36:15Z","count":15609,"tles":[{"name":"STARLINK-11714 [DTC]","line1":"1 64134U 25111M   26087.76319353  .00309852  00000+0  23283-2 0  9994","line2":"2 64134  43.0010 218.4516 0001202 281.8624  78.2109 15.70850047 49648","category":"Starlink"}]}